ICEYE-X39               
1 60546U 24149CG  26068.72048823  .00003515  00000+0  29320-3 0  9999
2 60546  97.6853 147.0953 0005274  52.5538 307.6164 14.99225125 85219
STARLINK-34378          
1 64299U 25123J   26068.72131138  .00001232  00000+0  11104-3 0  9998
2 64299  70.0027 194.3646 0003115 267.7403  92.3399 14.98328040 41627
